{
"type": "FeatureCollection",
"name": "candidates_v2_smart",
"crs": { "type": "name", "properties": { "name": "urn:ogc:def:crs:OGC:1.3:CRS84" } },
"features": [
{ "type": "Feature", "properties": { "id": 2255, "address": "Красноярский край, Красноярск, ул. Цементников, 39Гр-н Свердловский", "latitude": 55.9702696, "longitude": 92.9194566, "area_m2": 112.0, "price_rub_per_month": 2500000, "index_right": 345, "h3_id": "880b9a75cdfffff", "population_estimated": 10900, "expected_coverage": 7555.3287726112385 }, "geometry": { "type": "Point", "coordinates": [ 92.9194566, 55.9702696 ] } },
{ "type": "Feature", "properties": { "id": 1707, "address": "Красноярский край, Красноярск, ул. Мичурина, 59р-н Кировский", "latitude": 55.9869918, "longitude": 92.9763895, "area_m2": 150.0, "price_rub_per_month": 17800000, "index_right": 73, "h3_id": "880b9a7583fffff", "population_estimated": 9553, "expected_coverage": 7162.4802466601304 }, "geometry": { "type": "Point", "coordinates": [ 92.97638950000001, 55.9869918 ] } },
{ "type": "Feature", "properties": { "id": 1604, "address": "Красноярский край, Красноярск, Аральская ул., 39р-н Кировский", "latitude": 55.9890424, "longitude": 93.0059425, "area_m2": 92.0, "price_rub_per_month": 123000, "index_right": 300, "h3_id": "880b9a75bbfffff", "population_estimated": 13969, "expected_coverage": 5782.3545035102907 }, "geometry": { "type": "Point", "coordinates": [ 93.0059425, 55.9890424 ] } },
{ "type": "Feature", "properties": { "id": 2349, "address": "Красноярский край, Красноярск, Ястынская ул., 11р-н Советский", "latitude": 56.0682985, "longitude": 92.9609919, "area_m2": 94.4, "price_rub_per_month": 80000, "index_right": 164, "h3_id": "880b9a2945fffff", "population_estimated": 8143, "expected_coverage": 5426.5407615094 }, "geometry": { "type": "Point", "coordinates": [ 92.9609919, 56.0682985 ] } },
{ "type": "Feature", "properties": { "id": 1751, "address": "Красноярский край, Красноярск, Брянская ул., 142р-н Железнодорожный", "latitude": 56.0395782, "longitude": 92.8479424, "area_m2": 51.5, "price_rub_per_month": 66950, "index_right": 387, "h3_id": "880b9a76abfffff", "population_estimated": 6030, "expected_coverage": 5124.1420130621136 }, "geometry": { "type": "Point", "coordinates": [ 92.8479424, 56.0395782 ] } }
]
}
