{
"type": "FeatureCollection",
"name": "candidates_v1_naive",
"crs": { "type": "name", "properties": { "name": "urn:ogc:def:crs:OGC:1.3:CRS84" } },
"features": [
{ "type": "Feature", "properties": { "id": 2499, "address": "Красноярский край, Красноярск, ул. Алексеева, 49р-н Советский", "latitude": 56.0576909, "longitude": 92.9210159, "area_m2": 35.9, "price_rub_per_month": 35000, "index_right": 89, "h3_id": "880b9a74d3fffff", "population_estimated": 17652, "expected_coverage": 17652 }, "geometry": { "type": "Point", "coordinates": [ 92.921015900000015, 56.0576909 ] } },
{ "type": "Feature", "properties": { "id": 2743, "address": "Красноярский край, Красноярск, ул. Алексеева, 46р-н Советский", "latitude": 56.0576909, "longitude": 92.9210159, "area_m2": 93.4, "price_rub_per_month": 56040, "index_right": 89, "h3_id": "880b9a74d3fffff", "population_estimated": 17652, "expected_coverage": 17652 }, "geometry": { "type": "Point", "coordinates": [ 92.921015900000015, 56.0576909 ] } },
{ "type": "Feature", "properties": { "id": 2996, "address": "Красноярский край, Красноярск, ул. 9 Мая, 42Ар-н Советский", "latitude": 56.0622193, "longitude": 92.9170658, "area_m2": 93.6, "price_rub_per_month": 84240, "index_right": 89, "h3_id": "880b9a74d3fffff", "population_estimated": 17652, "expected_coverage": 17652 }, "geometry": { "type": "Point", "coordinates": [ 92.9170658, 56.0622193 ] } },
{ "type": "Feature", "properties": { "id": 1685, "address": "Красноярский край, Красноярск, Московская ул., 26/1р-н Ленинский", "latitude": 56.0090794, "longitude": 92.9682485, "area_m2": 35.0, "price_rub_per_month": 50000, "index_right": 308, "h3_id": "880b9a74a5fffff", "population_estimated": 17153, "expected_coverage": 17153 }, "geometry": { "type": "Point", "coordinates": [ 92.9682485, 56.0090794 ] } },
{ "type": "Feature", "properties": { "id": 3106, "address": "Красноярский край, Красноярск, Коломенская ул., 17Ар-н Ленинский", "latitude": 56.0096754, "longitude": 92.9648348, "area_m2": 130.0, "price_rub_per_month": 50000, "index_right": 308, "h3_id": "880b9a74a5fffff", "population_estimated": 17153, "expected_coverage": 17153 }, "geometry": { "type": "Point", "coordinates": [ 92.9648348, 56.0096754 ] } }
]
}
