{
"type": "FeatureCollection",
"name": "final_5_locations_roi",
"crs": { "type": "name", "properties": { "name": "urn:ogc:def:crs:OGC:1.3:CRS84" } },
"features": [
{ "type": "Feature", "properties": { "id": 1617, "address": "Красноярский край, Красноярск, Аральская ул., 16р-н Ленинский", "latitude": 55.9882625, "longitude": 93.0074328, "area_m2": 35.0, "price_rub_per_month": 35000, "hex_id": "880b9a75bbfffff", "marginal_coverage": 3650.3094217914995, "cost_efficiency": 9.588228272118009, "expected_revenue": 5475464.1326872492, "business_roi": 156.44183236249285 }, "geometry": { "type": "Point", "coordinates": [ 93.0074328, 55.9882625 ] } },
{ "type": "Feature", "properties": { "id": 1590, "address": "Красноярский край, Красноярск, Новосибирская ул., 7р-н Железнодорожный", "latitude": 56.0185019, "longitude": 92.8240307, "area_m2": 32.1, "price_rub_per_month": 17000, "hex_id": "880b9a76e5fffff", "marginal_coverage": 887.33600668479619, "cost_efficiency": 19.158469702490979, "expected_revenue": 1331004.0100271944, "business_roi": 78.294353531011438 }, "geometry": { "type": "Point", "coordinates": [ 92.8240307, 56.0185019 ] } },
{ "type": "Feature", "properties": { "id": 1802, "address": "Красноярский край, Красноярск, ул. Ломоносова, 85р-н Октябрьский", "latitude": 56.0053256, "longitude": 92.8462945, "area_m2": 33.0, "price_rub_per_month": 23000, "hex_id": "880b9a7451fffff", "marginal_coverage": 539.96009925751252, "cost_efficiency": 42.595740003060975, "expected_revenue": 809940.14888626884, "business_roi": 35.214789082011691 }, "geometry": { "type": "Point", "coordinates": [ 92.8462945, 56.0053256 ] } },
{ "type": "Feature", "properties": { "id": 1597, "address": "Красноярский край, Красноярск, ул. Спандаряна, 10р-н Советский", "latitude": 56.0283084, "longitude": 92.8981493, "area_m2": 124.8, "price_rub_per_month": 53664, "hex_id": "880b9a74c1fffff", "marginal_coverage": 849.92809076814524, "cost_efficiency": 63.139459188247002, "expected_revenue": 1274892.1361522179, "business_roi": 23.756934558590821 }, "geometry": { "type": "Point", "coordinates": [ 92.8981493, 56.0283084 ] } },
{ "type": "Feature", "properties": { "id": 1443, "address": "Красноярский край, Красноярск, ул. 78-й Добровольческой Бригады, 1р-н Советский", "latitude": 56.0369841, "longitude": 92.9195085, "area_m2": 83.0, "price_rub_per_month": 75000, "hex_id": "880b9a7489fffff", "marginal_coverage": 255.69702792704635, "cost_efficiency": 293.3158848502473, "expected_revenue": 383545.5418905695, "business_roi": 5.1139405585409268 }, "geometry": { "type": "Point", "coordinates": [ 92.9195085, 56.0369841 ] } }
]
}
