{
"type": "FeatureCollection",
"name": "micro_candidates_evaluated",
"crs": { "type": "name", "properties": { "name": "urn:ogc:def:crs:OGC:1.3:CRS84" } },
"features": [
{ "type": "Feature", "properties": { "id": 2087, "address": "Красноярский край, Красноярск, ул. Ломоносова, 98р-н Железнодорожный", "latitude": 56.0047894, "longitude": 92.8461204, "area_m2": 36.0, "price_rub_per_month": 33000, "hex_id": "880b9a7451fffff", "marginal_coverage": 0, "cost_efficiency": 330000000.0 }, "geometry": { "type": "Point", "coordinates": [ 92.8461204, 56.0047894 ] } },
{ "type": "Feature", "properties": { "id": 1269, "address": "Красноярский край, Красноярск, ул. 78-й Добровольческой Бригады, 26р-н Советский", "latitude": 56.0380017, "longitude": 92.9206106, "area_m2": 40.0, "price_rub_per_month": 44000, "hex_id": "880b9a7489fffff", "marginal_coverage": 0, "cost_efficiency": 440000000.0 }, "geometry": { "type": "Point", "coordinates": [ 92.9206106, 56.0380017 ] } },
{ "type": "Feature", "properties": { "id": 2123, "address": "Красноярский край, Красноярск, ул. Дубровинского, 110с2р-н Железнодорожный", "latitude": 56.0035832, "longitude": 92.8476716, "area_m2": 68.0, "price_rub_per_month": 8740000, "hex_id": "880b9a7451fffff", "marginal_coverage": 0, "cost_efficiency": 87400000000.0 }, "geometry": { "type": "Point", "coordinates": [ 92.847671599999984, 56.0035832 ] } },
{ "type": "Feature", "properties": { "id": 1336, "address": "Красноярский край, Красноярск, Аральская ул., 1Вр-н Ленинский", "latitude": 55.9885425, "longitude": 93.0079906, "area_m2": 120.0, "price_rub_per_month": 400, "hex_id": "880b9a75bbfffff", "marginal_coverage": 13969, "cost_efficiency": 0.02863483427589663 }, "geometry": { "type": "Point", "coordinates": [ 93.0079906, 55.9885425 ] } },
{ "type": "Feature", "properties": { "id": 1354, "address": "Красноярский край, Красноярск, ул. Весны, 9р-н Советский", "latitude": 56.0392356, "longitude": 92.9137803, "area_m2": 52.1, "price_rub_per_month": 80000, "hex_id": "880b9a7489fffff", "marginal_coverage": 0, "cost_efficiency": 800000000.0 }, "geometry": { "type": "Point", "coordinates": [ 92.9137803, 56.0392356 ] } },
{ "type": "Feature", "properties": { "id": 1404, "address": "Красноярский край, Красноярск, ул. Дубровинского, 110с2р-н Железнодорожный", "latitude": 56.0035832, "longitude": 92.8476716, "area_m2": 32.8, "price_rub_per_month": 4580000, "hex_id": "880b9a7451fffff", "marginal_coverage": 0, "cost_efficiency": 45800000000.0 }, "geometry": { "type": "Point", "coordinates": [ 92.847671599999984, 56.0035832 ] } },
{ "type": "Feature", "properties": { "id": 1424, "address": "Красноярский край, Красноярск, Аральская ул., 14р-н Ленинский", "latitude": 55.9882625, "longitude": 93.0074328, "area_m2": 74.0, "price_rub_per_month": 50000, "hex_id": "880b9a75bbfffff", "marginal_coverage": 13969, "cost_efficiency": 3.5793542844870787 }, "geometry": { "type": "Point", "coordinates": [ 93.0074328, 55.9882625 ] } },
{ "type": "Feature", "properties": { "id": 1437, "address": "Красноярский край, Красноярск, Красномосковская ул., 27р-н Железнодорожный", "latitude": 56.0204649, "longitude": 92.8207377, "area_m2": 40.0, "price_rub_per_month": 45000, "hex_id": "880b9a76e5fffff", "marginal_coverage": 0, "cost_efficiency": 450000000.0 }, "geometry": { "type": "Point", "coordinates": [ 92.8207377, 56.0204649 ] } },
{ "type": "Feature", "properties": { "id": 1443, "address": "Красноярский край, Красноярск, ул. 78-й Добровольческой Бригады, 1р-н Советский", "latitude": 56.0369841, "longitude": 92.9195085, "area_m2": 83.0, "price_rub_per_month": 75000, "hex_id": "880b9a7489fffff", "marginal_coverage": 0, "cost_efficiency": 750000000.0 }, "geometry": { "type": "Point", "coordinates": [ 92.9195085, 56.0369841 ] } },
{ "type": "Feature", "properties": { "id": 1531, "address": "Красноярский край, Красноярск, Октябрьская ул., 10Бр-н Советский", "latitude": 56.0371442, "longitude": 92.9216244, "area_m2": 30.0, "price_rub_per_month": 27000, "hex_id": "880b9a7489fffff", "marginal_coverage": 0, "cost_efficiency": 270000000.0 }, "geometry": { "type": "Point", "coordinates": [ 92.921624399999985, 56.0371442 ] } },
{ "type": "Feature", "properties": { "id": 1590, "address": "Красноярский край, Красноярск, Новосибирская ул., 7р-н Железнодорожный", "latitude": 56.0185019, "longitude": 92.8240307, "area_m2": 32.1, "price_rub_per_month": 17000, "hex_id": "880b9a76e5fffff", "marginal_coverage": 0, "cost_efficiency": 170000000.0 }, "geometry": { "type": "Point", "coordinates": [ 92.8240307, 56.0185019 ] } },
{ "type": "Feature", "properties": { "id": 1604, "address": "Красноярский край, Красноярск, Аральская ул., 39р-н Кировский", "latitude": 55.9890424, "longitude": 93.0059425, "area_m2": 92.0, "price_rub_per_month": 123000, "hex_id": "880b9a75bbfffff", "marginal_coverage": 13969, "cost_efficiency": 8.8052115398382131 }, "geometry": { "type": "Point", "coordinates": [ 93.0059425, 55.9890424 ] } },
{ "type": "Feature", "properties": { "id": 1617, "address": "Красноярский край, Красноярск, Аральская ул., 16р-н Ленинский", "latitude": 55.9882625, "longitude": 93.0074328, "area_m2": 35.0, "price_rub_per_month": 35000, "hex_id": "880b9a75bbfffff", "marginal_coverage": 13969, "cost_efficiency": 2.5055479991409548 }, "geometry": { "type": "Point", "coordinates": [ 93.0074328, 55.9882625 ] } },
{ "type": "Feature", "properties": { "id": 1655, "address": "Красноярский край, Красноярск, Аральская ул., 1Вр-н Ленинский", "latitude": 55.9885425, "longitude": 93.0079906, "area_m2": 120.0, "price_rub_per_month": 48000, "hex_id": "880b9a75bbfffff", "marginal_coverage": 13969, "cost_efficiency": 3.4361801131075955 }, "geometry": { "type": "Point", "coordinates": [ 93.0079906, 55.9885425 ] } },
{ "type": "Feature", "properties": { "id": 1707, "address": "Красноярский край, Красноярск, ул. Мичурина, 59р-н Кировский", "latitude": 55.9869918, "longitude": 92.9763895, "area_m2": 150.0, "price_rub_per_month": 17800000, "hex_id": "880b9a7583fffff", "marginal_coverage": 0, "cost_efficiency": 178000000000.0 }, "geometry": { "type": "Point", "coordinates": [ 92.9763895, 55.9869918 ] } },
{ "type": "Feature", "properties": { "id": 1737, "address": "Красноярский край, Красноярск, Новосибирская ул., 7р-н Железнодорожный", "latitude": 56.0185019, "longitude": 92.8240307, "area_m2": 31.7, "price_rub_per_month": 20000, "hex_id": "880b9a76e5fffff", "marginal_coverage": 0, "cost_efficiency": 200000000.0 }, "geometry": { "type": "Point", "coordinates": [ 92.8240307, 56.0185019 ] } },
{ "type": "Feature", "properties": { "id": 1802, "address": "Красноярский край, Красноярск, ул. Ломоносова, 85р-н Октябрьский", "latitude": 56.0053256, "longitude": 92.8462945, "area_m2": 33.0, "price_rub_per_month": 23000, "hex_id": "880b9a7451fffff", "marginal_coverage": 0, "cost_efficiency": 230000000.0 }, "geometry": { "type": "Point", "coordinates": [ 92.8462945, 56.0053256 ] } },
{ "type": "Feature", "properties": { "id": 2235, "address": "Красноярский край, Красноярск, Октябрьская ул., 16р-н Советский", "latitude": 56.0347848, "longitude": 92.9191529, "area_m2": 108.9, "price_rub_per_month": 119790, "hex_id": "880b9a7489fffff", "marginal_coverage": 0, "cost_efficiency": 1197900000.0 }, "geometry": { "type": "Point", "coordinates": [ 92.919152900000014, 56.0347848 ] } },
{ "type": "Feature", "properties": { "id": 2246, "address": "Красноярский край, Красноярск, ул. Копылова, 15р-н Железнодорожный", "latitude": 56.0136737, "longitude": 92.8238856, "area_m2": 53.2, "price_rub_per_month": 8100000, "hex_id": "880b9a76e5fffff", "marginal_coverage": 0, "cost_efficiency": 81000000000.0 }, "geometry": { "type": "Point", "coordinates": [ 92.823885599999983, 56.0136737 ] } },
{ "type": "Feature", "properties": { "id": 2316, "address": "Красноярский край, Красноярск, ул. 78-й Добровольческой Бригады, 5р-н Советский", "latitude": 56.0369841, "longitude": 92.9195085, "area_m2": 70.0, "price_rub_per_month": 13700000, "hex_id": "880b9a7489fffff", "marginal_coverage": 0, "cost_efficiency": 137000000000.0 }, "geometry": { "type": "Point", "coordinates": [ 92.9195085, 56.0369841 ] } },
{ "type": "Feature", "properties": { "id": 2381, "address": "Красноярский край, Красноярск, ул. 78-й Добровольческой Бригады, 12р-н Советский", "latitude": 56.0373944, "longitude": 92.9178032, "area_m2": 80.0, "price_rub_per_month": 5120000, "hex_id": "880b9a7489fffff", "marginal_coverage": 0, "cost_efficiency": 51200000000.0 }, "geometry": { "type": "Point", "coordinates": [ 92.91780319999998, 56.0373944 ] } },
{ "type": "Feature", "properties": { "id": 2391, "address": "Красноярский край, Красноярск, Октябрьская ул., 10Бр-н Советский", "latitude": 56.0371442, "longitude": 92.9216244, "area_m2": 83.5, "price_rub_per_month": 58450, "hex_id": "880b9a7489fffff", "marginal_coverage": 0, "cost_efficiency": 584500000.0 }, "geometry": { "type": "Point", "coordinates": [ 92.921624399999985, 56.0371442 ] } },
{ "type": "Feature", "properties": { "id": 2394, "address": "Красноярский край, Красноярск, ул. Горького, 32р-н Центральный", "latitude": 56.0059062, "longitude": 92.848956, "area_m2": 44.7, "price_rub_per_month": 50000, "hex_id": "880b9a7451fffff", "marginal_coverage": 0, "cost_efficiency": 500000000.0 }, "geometry": { "type": "Point", "coordinates": [ 92.848956, 56.0059062 ] } },
{ "type": "Feature", "properties": { "id": 2444, "address": "Красноярский край, Красноярск, Октябрьская ул., 2Ар-н Советский", "latitude": 56.0348352, "longitude": 92.9214431, "area_m2": 70.6, "price_rub_per_month": 63540, "hex_id": "880b9a7489fffff", "marginal_coverage": 0, "cost_efficiency": 635400000.0 }, "geometry": { "type": "Point", "coordinates": [ 92.921443100000019, 56.0348352 ] } },
{ "type": "Feature", "properties": { "id": 2531, "address": "Красноярский край, Красноярск, ул. Горького, 34р-н Центральный", "latitude": 56.0059062, "longitude": 92.848956, "area_m2": 70.8, "price_rub_per_month": 7400000, "hex_id": "880b9a7451fffff", "marginal_coverage": 0, "cost_efficiency": 74000000000.0 }, "geometry": { "type": "Point", "coordinates": [ 92.848956, 56.0059062 ] } },
{ "type": "Feature", "properties": { "id": 2570, "address": "Красноярский край, Красноярск, ул. 78-й Добровольческой Бригады, 2р-н Советский", "latitude": 56.0369841, "longitude": 92.9195085, "area_m2": 93.0, "price_rub_per_month": 15900000, "hex_id": "880b9a7489fffff", "marginal_coverage": 0, "cost_efficiency": 159000000000.0 }, "geometry": { "type": "Point", "coordinates": [ 92.9195085, 56.0369841 ] } },
{ "type": "Feature", "properties": { "id": 2704, "address": "Красноярский край, Красноярск, ул. Копылова, 17р-н Железнодорожный", "latitude": 56.0136737, "longitude": 92.8238856, "area_m2": 90.0, "price_rub_per_month": 103500, "hex_id": "880b9a76e5fffff", "marginal_coverage": 0, "cost_efficiency": 1035000000.0 }, "geometry": { "type": "Point", "coordinates": [ 92.823885599999983, 56.0136737 ] } },
{ "type": "Feature", "properties": { "id": 2706, "address": "Красноярский край, Красноярск, Октябрьская ул., 16р-н Советский", "latitude": 56.0347848, "longitude": 92.9191529, "area_m2": 139.9, "price_rub_per_month": 153890, "hex_id": "880b9a7489fffff", "marginal_coverage": 0, "cost_efficiency": 1538900000.0 }, "geometry": { "type": "Point", "coordinates": [ 92.919152900000014, 56.0347848 ] } },
{ "type": "Feature", "properties": { "id": 2775, "address": "Красноярский край, Красноярск, ул. 78-й Добровольческой Бригады, 25р-н Советский", "latitude": 56.0380017, "longitude": 92.9206106, "area_m2": 60.6, "price_rub_per_month": 66660, "hex_id": "880b9a7489fffff", "marginal_coverage": 0, "cost_efficiency": 666600000.0 }, "geometry": { "type": "Point", "coordinates": [ 92.9206106, 56.0380017 ] } },
{ "type": "Feature", "properties": { "id": 2836, "address": "Красноярский край, Красноярск, Октябрьская ул., 16р-н Советский", "latitude": 56.0347848, "longitude": 92.9191529, "area_m2": 134.0, "price_rub_per_month": 174200, "hex_id": "880b9a7489fffff", "marginal_coverage": 0, "cost_efficiency": 1742000000.0 }, "geometry": { "type": "Point", "coordinates": [ 92.919152900000014, 56.0347848 ] } },
{ "type": "Feature", "properties": { "id": 2888, "address": "Красноярский край, Красноярск, Новосибирская ул., 7р-н Железнодорожный", "latitude": 56.0185019, "longitude": 92.8240307, "area_m2": 32.0, "price_rub_per_month": 3000000, "hex_id": "880b9a76e5fffff", "marginal_coverage": 0, "cost_efficiency": 30000000000.0 }, "geometry": { "type": "Point", "coordinates": [ 92.8240307, 56.0185019 ] } },
{ "type": "Feature", "properties": { "id": 2943, "address": "Красноярский край, Красноярск, Взлётная ул., 57р-н Советский", "latitude": 56.0331849, "longitude": 92.9162897, "area_m2": 118.0, "price_rub_per_month": 129800, "hex_id": "880b9a7489fffff", "marginal_coverage": 0, "cost_efficiency": 1298000000.0 }, "geometry": { "type": "Point", "coordinates": [ 92.916289699999979, 56.0331849 ] } },
{ "type": "Feature", "properties": { "id": 3034, "address": "Красноярский край, Красноярск, ул. Профсоюзов, 38р-н Железнодорожный", "latitude": 56.0025267, "longitude": 92.8450417, "area_m2": 52.3, "price_rub_per_month": 63000, "hex_id": "880b9a7451fffff", "marginal_coverage": 0, "cost_efficiency": 630000000.0 }, "geometry": { "type": "Point", "coordinates": [ 92.8450417, 56.0025267 ] } },
{ "type": "Feature", "properties": { "id": 1581, "address": "Красноярский край, Красноярск, Новосибирская ул., 35р-н Октябрьский", "latitude": 56.0181059, "longitude": 92.8237666, "area_m2": 67.0, "price_rub_per_month": 80000, "hex_id": "880b9a76e5fffff", "marginal_coverage": 0, "cost_efficiency": 800000000.0 }, "geometry": { "type": "Point", "coordinates": [ 92.823766599999985, 56.0181059 ] } },
{ "type": "Feature", "properties": { "id": 1860, "address": "Красноярский край, Красноярск, ул. Менжинского, 10Жр-н Железнодорожный", "latitude": 56.0162404, "longitude": 92.8218289, "area_m2": 73.9, "price_rub_per_month": 10300000, "hex_id": "880b9a76e5fffff", "marginal_coverage": 0, "cost_efficiency": 103000000000.0 }, "geometry": { "type": "Point", "coordinates": [ 92.8218289, 56.0162404 ] } },
{ "type": "Feature", "properties": { "id": 1969, "address": "Красноярский край, Красноярск, ул. Дубровинского, 110с2р-н Железнодорожный", "latitude": 56.0035832, "longitude": 92.8476716, "area_m2": 34.0, "price_rub_per_month": 30000, "hex_id": "880b9a7451fffff", "marginal_coverage": 0, "cost_efficiency": 300000000.0 }, "geometry": { "type": "Point", "coordinates": [ 92.847671599999984, 56.0035832 ] } },
{ "type": "Feature", "properties": { "id": 2668, "address": "Красноярский край, Красноярск, Новосибирская ул., 7р-н Железнодорожный", "latitude": 56.0185019, "longitude": 92.8240307, "area_m2": 41.7, "price_rub_per_month": 25020, "hex_id": "880b9a76e5fffff", "marginal_coverage": 0, "cost_efficiency": 250200000.0 }, "geometry": { "type": "Point", "coordinates": [ 92.8240307, 56.0185019 ] } },
{ "type": "Feature", "properties": { "id": 2760, "address": "Красноярский край, Красноярск, Октябрьская ул., 10р-н Советский", "latitude": 56.0347848, "longitude": 92.9191529, "area_m2": 87.8, "price_rub_per_month": 79020, "hex_id": "880b9a7489fffff", "marginal_coverage": 0, "cost_efficiency": 790200000.0 }, "geometry": { "type": "Point", "coordinates": [ 92.919152900000014, 56.0347848 ] } },
{ "type": "Feature", "properties": { "id": 2988, "address": "Красноярский край, Красноярск, ул. 78-й Добровольческой Бригады, 15р-н Советский", "latitude": 56.0373944, "longitude": 92.9178032, "area_m2": 136.7, "price_rub_per_month": 22000000, "hex_id": "880b9a7489fffff", "marginal_coverage": 0, "cost_efficiency": 220000000000.0 }, "geometry": { "type": "Point", "coordinates": [ 92.91780319999998, 56.0373944 ] } }
]
}
