{
"type": "FeatureCollection",
"name": "top_5_macro_zones",
"crs": { "type": "name", "properties": { "name": "urn:ogc:def:crs:EPSG::32646" } },
"features": [
{ "type": "Feature", "properties": { "hex_id": "880b9a75bbfffff", "h3_resolution": 8, "center_lat": 55.990153406448663, "center_lng": 93.006124088139899, "district_name": "Ленинский район", "total_levels": 430.0, "district_total_levels": 4826.0, "population_2020": 156777, "population": 13969, "pvz_count": 1, "pvz_per_10k_people": 0.7158708568974157, "unmet_demand": 10202.776351777686, "has_realty": 1, "deficit_score": 10202.776351777686 }, "geometry": { "type": "Polygon", "coordinates": [ [ [ 499952.38247115467675, 6205339.897697144187987 ], [ 499878.4845895615872, 6204791.914258672855794 ], [ 500308.152293769526295, 6204435.722888235002756 ], [ 500811.694899942260236, 6204627.521491333842278 ], [ 500885.576447858882602, 6205175.488028797321022 ], [ 500455.931721734057646, 6205531.672862251289189 ], [ 499952.38247115467675, 6205339.897697144187987 ] ] ] } },
{ "type": "Feature", "properties": { "hex_id": "880b9a7451fffff", "h3_resolution": 8, "center_lat": 56.006306684454593, "center_lng": 92.8414443113804, "district_name": "Железнодорожный район", "total_levels": 532.0, "district_total_levels": 3954.0, "population_2020": 100946, "population": 13582, "pvz_count": 3, "pvz_per_10k_people": 2.2088057723457517, "unmet_demand": 8893.3578106820987, "has_realty": 1, "deficit_score": 8893.3578106820987 }, "geometry": { "type": "Polygon", "coordinates": [ [ [ 489682.911447855702136, 6207149.197941552847624 ], [ 489608.833590830385219, 6206601.028575553558767 ], [ 490038.772651701874565, 6206244.678059985861182 ], [ 490542.766555276233703, 6206436.503475865349174 ], [ 490616.828027786919847, 6206984.655938122421503 ], [ 490186.911979691416491, 6207340.999886326491833 ], [ 489682.911447855702136, 6207149.197941552847624 ] ] ] } },
{ "type": "Feature", "properties": { "hex_id": "880b9a7489fffff", "h3_resolution": 8, "center_lat": 56.036659445579183, "center_lng": 92.91766406015951, "district_name": "Советский район", "total_levels": 575.0, "district_total_levels": 14302.0, "population_2020": 368563, "population": 14818, "pvz_count": 7, "pvz_per_10k_people": 4.7239843433661761, "unmet_demand": 8462.0601948105741, "has_realty": 1, "deficit_score": 8462.0601948105741 }, "geometry": { "type": "Polygon", "coordinates": [ [ [ 494439.982301585027017, 6210519.042841169983149 ], [ 494365.994188000855502, 6209971.06974586378783 ], [ 494795.768972174089868, 6209614.781077737919986 ], [ 495299.508864164701663, 6209806.472113243304193 ], [ 495373.480567894002888, 6210354.42833212018013 ], [ 494943.728787939762697, 6210710.710390004329383 ], [ 494439.982301585027017, 6210519.042841169983149 ] ] ] } },
{ "type": "Feature", "properties": { "hex_id": "880b9a76e5fffff", "h3_resolution": 8, "center_lat": 56.015883878105349, "center_lng": 92.820715669241878, "district_name": "Железнодорожный район", "total_levels": 649.0, "district_total_levels": 3954.0, "population_2020": 100946, "population": 16569, "pvz_count": 5, "pvz_per_10k_people": 3.0176836260486448, "unmet_demand": 7262.607214786326, "has_realty": 1, "deficit_score": 7262.607214786326 }, "geometry": { "type": "Polygon", "coordinates": [ [ [ 488393.063311306235846, 6208218.295551501214504 ], [ 488318.964016294863541, 6207670.124868615530431 ], [ 488748.929267384286504, 6207313.751981878653169 ], [ 489252.970793319633231, 6207505.55635869409889 ], [ 489327.053687641222496, 6208053.710142707452178 ], [ 488897.111455169680994, 6208410.076446860097349 ], [ 488393.063311306235846, 6208218.295551501214504 ] ] ] } },
{ "type": "Feature", "properties": { "hex_id": "880b9a74c1fffff", "h3_resolution": 8, "center_lat": 56.031473849310551, "center_lng": 92.893422636894712, "district_name": "Советский район", "total_levels": 308.0, "district_total_levels": 14302.0, "population_2020": 368563, "population": 7937, "pvz_count": 0, "pvz_per_10k_people": 0.0, "unmet_demand": 6716.9256571896749, "has_realty": 1, "deficit_score": 6716.9256571896749 }, "geometry": { "type": "Polygon", "coordinates": [ [ [ 492928.591936701908708, 6209943.983531290665269 ], [ 492854.575996563304216, 6209395.961038459092379 ], [ 493284.398402157239616, 6209039.651310444809496 ], [ 493788.213738517893944, 6209231.3706766795367 ], [ 493862.213271081156563, 6209779.376287470571697 ], [ 493432.413873311248608, 6210135.679412153549492 ], [ 492928.591936701908708, 6209943.983531290665269 ] ] ] } }
]
}
